FLOCK 2K-36             
1 42876U 17042BD  17350.47119098  .00001866  00000-0  57026-4 0  9991
2 42876  96.9954 251.3527 0014262  47.8371 312.4082 15.34964274 23595
FLOCK 2K-35             
1 42877U 17042BE  17350.47109668  .00001998  00000-0  60587-4 0  9996
2 42877  96.9951 251.3506 0014117  47.6450 312.5987 15.35133145 23596
FLOCK 2K-34             
1 42878U 17042BF  17350.53439381  .00002038  00000-0  61940-4 0  9992
2 42878  96.9951 251.4103 0014251  48.2064 312.0395 15.35045025 23607
FLOCK 2K-33             
1 42879U 17042BG  17350.40112800  .00001957  00000-0  59565-4 0  9992
2 42879  96.9950 251.2905 0014391  48.2980 311.9493 15.35033873 23589
FLOCK 2K-28             
1 42880U 17042BH  17350.71367380  .00002146  00000-0  67497-4 0  9997
2 42880  96.9955 251.4809 0014513  47.4100 312.8366 15.33888090 23623
LEMUR-2-ARTFISCHER      
1 42881U 17042BJ  17351.20721635  .00003478  00000-0  10573-3 0  9991
2 42881  96.9979 252.0587 0015090  46.8654 313.3849 15.34561794 23697
FLOCK 2K-27             
1 42882U 17042BK  17350.79124109  .00005041  00000-0  15000-3 0  9996
2 42882  96.9954 251.6689 0014480  47.6682 312.5786 15.35039625 23641
FLOCK 2K-26             
1 42883U 17042BL  17350.26698632  .00003166  00000-0  95025-4 0  9998
2 42883  96.9946 251.1736 0014509  47.7724 312.4749 15.35038106 23563
FLOCK 2K-25             
1 42884U 17042BM  17350.79389905  .00003310  00000-0  99244-4 0  9995
2 42884  96.9951 251.6572 0014237  47.2213 313.0226 15.35046936 23645
FLOCK 2K-20             
1 42885U 17042BN  17350.52636521  .00002172  00000-0  65961-4 0  9990
2 42885  96.9951 251.4256 0014520  46.6628 313.5823 15.34993461 23608
FLOCK 2K-19             
1 42886U 17042BP  17351.18130389  .00001849  00000-0  56475-4 0  9995
2 42886  96.9953 252.0423 0014470  45.1043 315.1373 15.35001871 23708
FLOCK 2K-18             
1 42887U 17042BQ  17350.77843983  .00005638  00000-0  16767-3 0  9990
2 42887  96.9952 251.6810 0014617  45.3290 314.9143 15.35010696 23642
FLOCK 2K-17             
1 42888U 17042BR  17350.26160270  .00004230  00000-0  12644-3 0  9993
2 42888  96.9945 251.1722 0014639  46.3474 313.8981 15.34989039 23565
FLOCK 2K-16             
1 42889U 17042BS  17350.45812708  .00002076  00000-0  63235-4 0  9994
2 42889  96.9950 251.3677 0014278  45.4909 314.7499 15.34957741 23597
FLOCK 2K-15             
1 42890U 17042BT  17350.77688260  .00003300  00000-0  99107-4 0  9993
2 42890  96.9958 251.6932 0014474  45.1091 315.1326 15.34993162 23648
FLOCK 2K-13             
1 42891U 17042BU  17350.26405380  .00001818  00000-0  55650-4 0  9995
2 42891  96.9946 251.1775 0014607  43.7532 316.4868 15.34945115 23569
FLOCK 2K-14             
1 42892U 17042BV  17350.45379464  .00001869  00000-0  57160-4 0  9994
2 42892  96.9946 251.3632 0014555  44.7793 315.4624 15.34942513 23597
FLOCK 2K-12             
1 42893U 17042BW  17350.77392219  .00002351  00000-0  71223-4 0  9996
2 42893  96.9955 251.6919 0014575  45.2868 314.9561 15.34989372 23644
FLOCK 2K-11             
1 42894U 17042BX  17351.17247160  .00001812  00000-0  55405-4 0  9991
2 42894  96.9951 252.0527 0014474  40.3261 319.9054 15.34979010 23709
FLOCK 2K-10             
1 42895U 17042BY  17350.77509719  .00002373  00000-0  71912-4 0  9992
2 42895  96.9950 251.6803 0014562  43.4531 316.7858 15.34975894 23649
FLOCK 2K-09             
1 42896U 17042BZ  17350.25087801  .00004195  00000-0  12536-3 0  9999
2 42896  96.9956 251.1970 0014466  45.0022 315.2392 15.35004042 23738
FLOCK 2K-06             
1 42897U 17042CA  17350.48408537  .00001925  00000-0  58652-4 0  9996
2 42897  96.9950 251.3342 0013120  56.7941 303.4559 15.35049502 23591
SILU-1 (SILKROAD 1)     
1 42903U 17021F   17351.20506340  .00017375  00000-0  17983-3 0  9990
2 42903  42.7808 344.2371 0007698 103.6259 319.0227 15.64371226 21362
FLOCK 3M-1              
1 42995U 17068J   17350.82144198  .00000830  00000-0  43825-4 0  9991
2 42995  97.3441 103.6642 0019156  67.6869 292.6393 15.18055046  6965
FLOCK 3M-3              
1 42996U 17068K   17350.88251141  .00000838  00000-0  44050-4 0  9994
2 42996  97.3397 103.7060 0018511  68.1841 292.1361 15.18215853  6976
FLOCK 3M-4              
1 42997U 17068L   17350.81414010  .00002889  00000-0  14342-3 0  9992
2 42997  97.3609 103.7825 0018331  69.4365 290.8833 15.18330161  6965
FLOCK 3M-2              
1 42998U 17068M   17351.00283536  .00000781  00000-0  40860-4 0  9996
2 42998  97.3510 103.9216 0016483  65.3186 294.9762 15.18598798  6996
ECAMSAT                 
1 43019U 98067NG  17351.02295989  .00003866  00000-0  63413-4 0  9992
2 43019  51.6387 206.7049 0005157 206.5450 153.5277 15.55100110 90184
ASTERIA                 
1 43020U 98067NH  17351.08507375  .00005569  00000-0  87292-4 0  9998
2 43020  51.6390 206.3708 0002572 194.5614 165.5303 15.55388494  4118
DELLINGR (RBLE)         
1 43021U 98067NJ  17351.08783917  .00004558  00000-0  73432-4 0  9995
2 43021  51.6388 206.3891 0002354 192.0588 168.0347 15.55115883  4116
TECHEDSAT 6             
1 43026U 98067NK  17351.06201360  .00040861  00000-0  54247-3 0  9994
2 43026  51.6381 206.2172 0003208 189.8221 170.2709 15.57806005  4013
OSIRIS-3U               
1 43027U 98067NL  17351.14195534  .00014721  00000-0  21393-3 0  9991
2 43027  51.6385 206.0008 0004438 176.7595 183.3426 15.56019203  4004
2017-071E               
1 43041U 17071E   17350.82004491  .00004237  00000-0  12171-3 0  9993
2 43041  51.6385 209.0846 0000893 143.9165 216.1879 15.38032857  3829
2017-071F               
1 43042U 17071F   17350.62783619  .00003133  00000-0  93978-4 0  9997
2 43042  51.6381 210.0506 0004879 330.8286  29.2424 15.37612743  1509
2017-071G               
1 43043U 17071G   17350.82278016  .00003140  00000-0  94155-4 0  9996
2 43043  51.6386 209.1025 0004862 331.7346  28.3374 15.37619228  1508
2017-071H               
1 43044U 17071H   17351.01742350  .00004379  00000-0  12685-3 0  9998
2 43044  51.6382 208.1522 0004722 331.2624  28.8098 15.37690205  1530
2017-071J               
1 43045U 17071J   17351.01532686  .00003855  00000-0  11182-3 0  9997
2 43045  51.6383 208.1388 0003706 318.8238  41.2466 15.37999656  1579
2017-071K               
1 43046U 17071K   17350.81999522  .00004846  00000-0  13761-3 0  9997
2 43046  51.6393 209.0847 0003511 314.8796  45.1902 15.38064852  1558
2017-071L               
1 43047U 17071L   17350.82259795  .00003879  00000-0  11372-3 0  9991
2 43047  51.6386 209.1014 0003110   9.5843 350.5199 15.37644876  1543
2017-071M               
1 43048U 17071M   17350.88752356  .00003888  00000-0  11392-3 0  9991
2 43048  51.6387 208.7851 0003051   9.1127 350.9911 15.37654828  1559
2017-071N               
1 43049U 17071N   17350.62658626  .00002866  00000-0  86369-4 0  9991
2 43049  51.6387 210.0423 0002485 359.6544   0.4438 15.37793306  1474
2017-071P               
1 43050U 17071P   17351.08121959  .00002092  00000-0  65771-4 0  9993
2 43050  51.6388 207.8286 0002397 358.1798   1.9176 15.37830334  1530
2017-071Q               
1 43051U 17071Q   17349.45742660  .00004926  00000-0  14141-3 0  9992
2 43051  51.6385 215.7358 0002160 105.0230 255.0993 15.37679354  1288
2017-071R               
1 43052U 17071R   17350.88622024  .00003200  00000-0  95044-4 0  9999
2 43052  51.6389 208.7764 0002339 357.4389   2.6582 15.37845407  1501
2017-071S               
1 43053U 17071S   17350.82223151  .00003796  00000-0  11137-3 0  9992
2 43053  51.6385 209.0985 0002149 111.8492 248.2720 15.37683219  1506
2017-071T               
1 43054U 17071T   17350.62516391  .00003842  00000-0  11138-3 0  9995
2 43054  51.6385 210.0333 0000876 142.1330 217.9715 15.38018682  1479
